{
  "_meta": {
    "description": "Curated fallback set of candidate cooling-centre locations in Lahore (hospitals, parks, large venues). Approximate coordinates. Real, well-known public landmarks. For the full set, run backend/scripts/fetch_cooling_centres.py (OSM).",
    "note": "These are CANDIDATES for cooling-centre placement, not officially designated centres."
  },
  "type": "FeatureCollection",
  "features": [
    {
      "type": "Feature",
      "geometry": {
        "type": "Point",
        "coordinates": [
          74.308,
          31.582
        ]
      },
      "properties": {
        "name": "Mayo Hospital",
        "category": "hospital",
        "source": "curated_fallback"
      }
    },
    {
      "type": "Feature",
      "geometry": {
        "type": "Point",
        "coordinates": [
          74.296,
          31.493
        ]
      },
      "properties": {
        "name": "Jinnah Hospital",
        "category": "hospital",
        "source": "curated_fallback"
      }
    },
    {
      "type": "Feature",
      "geometry": {
        "type": "Point",
        "coordinates": [
          74.335,
          31.543
        ]
      },
      "properties": {
        "name": "Services Hospital",
        "category": "hospital",
        "source": "curated_fallback"
      }
    },
    {
      "type": "Feature",
      "geometry": {
        "type": "Point",
        "coordinates": [
          74.318,
          31.562
        ]
      },
      "properties": {
        "name": "Sir Ganga Ram Hospital",
        "category": "hospital",
        "source": "curated_fallback"
      }
    },
    {
      "type": "Feature",
      "geometry": {
        "type": "Point",
        "coordinates": [
          74.289,
          31.476
        ]
      },
      "properties": {
        "name": "General Hospital Lahore",
        "category": "hospital",
        "source": "curated_fallback"
      }
    },
    {
      "type": "Feature",
      "geometry": {
        "type": "Point",
        "coordinates": [
          74.254,
          31.468
        ]
      },
      "properties": {
        "name": "Shaukat Khanum Hospital",
        "category": "hospital",
        "source": "curated_fallback"
      }
    },
    {
      "type": "Feature",
      "geometry": {
        "type": "Point",
        "coordinates": [
          74.436,
          31.472
        ]
      },
      "properties": {
        "name": "PKLI (Pakistan Kidney & Liver Inst.)",
        "category": "hospital",
        "source": "curated_fallback"
      }
    },
    {
      "type": "Feature",
      "geometry": {
        "type": "Point",
        "coordinates": [
          74.332,
          31.556
        ]
      },
      "properties": {
        "name": "Bagh-e-Jinnah (Lawrence Gardens)",
        "category": "park",
        "source": "curated_fallback"
      }
    },
    {
      "type": "Feature",
      "geometry": {
        "type": "Point",
        "coordinates": [
          74.343,
          31.525
        ]
      },
      "properties": {
        "name": "Racecourse Park (Jilani Park)",
        "category": "park",
        "source": "curated_fallback"
      }
    },
    {
      "type": "Feature",
      "geometry": {
        "type": "Point",
        "coordinates": [
          74.32,
          31.482
        ]
      },
      "properties": {
        "name": "Model Town Park",
        "category": "park",
        "source": "curated_fallback"
      }
    },
    {
      "type": "Feature",
      "geometry": {
        "type": "Point",
        "coordinates": [
          74.31,
          31.591
        ]
      },
      "properties": {
        "name": "Greater Iqbal Park",
        "category": "park",
        "source": "curated_fallback"
      }
    },
    {
      "type": "Feature",
      "geometry": {
        "type": "Point",
        "coordinates": [
          74.282,
          31.515
        ]
      },
      "properties": {
        "name": "Gulshan-e-Iqbal Park",
        "category": "park",
        "source": "curated_fallback"
      }
    },
    {
      "type": "Feature",
      "geometry": {
        "type": "Point",
        "coordinates": [
          74.307,
          31.575
        ]
      },
      "properties": {
        "name": "Nasir Bagh",
        "category": "park",
        "source": "curated_fallback"
      }
    },
    {
      "type": "Feature",
      "geometry": {
        "type": "Point",
        "coordinates": [
          74.302,
          31.493
        ]
      },
      "properties": {
        "name": "University of the Punjab (New Campus)",
        "category": "school",
        "source": "curated_fallback"
      }
    },
    {
      "type": "Feature",
      "geometry": {
        "type": "Point",
        "coordinates": [
          74.307,
          31.577
        ]
      },
      "properties": {
        "name": "Government College University",
        "category": "school",
        "source": "curated_fallback"
      }
    }
  ]
}